{
    "links": {
        "self": "http://www.neowsapp.com/rest/v1/neo/3774724?api_key=iIulBulltgU6a56xZRHN4H3l9WmuAYTsLGpBGhQ2"
    },
    "id": "3774724",
    "neo_reference_id": "3774724",
    "name": "(2017 KQ4)",
    "designation": "2017 KQ4",
    "nasa_jpl_url": "http://ssd.jpl.nasa.gov/sbdb.cgi?sstr=3774724",
    "absolute_magnitude_h": 25.6,
    "estimated_diameter": {
        "kilometers": {
            "estimated_diameter_min": 0.0201629919,
            "estimated_diameter_max": 0.0450858206
        },
        "meters": {
            "estimated_diameter_min": 20.1629919443,
            "estimated_diameter_max": 45.0858206172
        },
        "miles": {
            "estimated_diameter_min": 0.0125286985,
            "estimated_diameter_max": 0.0280150214
        },
        "feet": {
            "estimated_diameter_min": 66.1515504905,
            "estimated_diameter_max": 147.9193637137
        }
    },
    "is_potentially_hazardous_asteroid": false,
    "close_approach_data": [
        {
            "close_approach_date": "2017-05-28",
            "close_approach_date_full": "2017-May-28 20:07",
            "epoch_date_close_approach": 1496002020000,
            "relative_velocity": {
                "kilometers_per_second": "2.2082528543",
                "kilometers_per_hour": "7949.7102754872",
                "miles_per_hour": "4939.6408097881"
            },
            "miss_distance": {
                "astronomical": "0.0911960475",
                "lunar": "35.4752624775",
                "kilometers": "13642734.458418825",
                "miles": "8477202.099376785"
            },
            "orbiting_body": "Earth"
        }
    ],
    "orbital_data": {
        "orbit_id": "3",
        "orbit_determination_date": "2017-05-30 06:18:12",
        "first_observation_date": "2017-05-19",
        "last_observation_date": "2017-05-29",
        "data_arc_in_days": 10,
        "observations_used": 38,
        "orbit_uncertainty": "8",
        "minimum_orbit_intersection": ".0910388",
        "jupiter_tisserand_invariant": "4.791",
        "epoch_osculation": "2457894.5",
        "eccentricity": ".1973646611483086",
        "semi_major_axis": "1.374958654508119",
        "inclination": "2.906258340326533",
        "ascending_node_longitude": "52.87903914225573",
        "orbital_period": "588.8882450354251",
        "perihelion_distance": "1.10359040556819",
        "perihelion_argument": "194.1826194960042",
        "aphelion_distance": "1.646326903448049",
        "perihelion_time": "2457902.224794178273",
        "mean_anomaly": "355.2776678298087",
        "mean_motion": ".6113214230967436",
        "equinox": "J2000",
        "orbit_class": {
            "orbit_class_type": "AMO",
            "orbit_class_description": "Near-Earth asteroid orbits similar to that of 1221 Amor",
            "orbit_class_range": "1.017 AU < q (perihelion) < 1.3 AU"
        }
    },
    "is_sentry_object": false
}